KAZSTSAT                
1 43783U 18099AB  26162.62688653  .00001236  00000+0  10421-3 0  9995
2 43783  97.4264 194.8082 0008155  84.2213 275.9941 14.99850159410474
SAUDISAT 5A             
1 43831U 18102A   26162.86042852  .00005221  00000+0  19358-3 0  9991
2 43831  97.3075 224.5439 0010653 145.5429 214.6504 15.27992536414860
SAUDISAT 5B             
1 43833U 18102C   26162.88017219  .00004859  00000+0  17891-3 0  9990
2 43833  97.3183 227.6233 0011309 147.9270 212.2660 15.28252415414983
GAOFEN-10R              
1 44622U 19066A   26162.89118550  .00000960  00000+0  12475-3 0  9990
2 44622  98.0496 116.4319 0006324 141.9623 218.2038 14.83049165361591
CARTOSAT-3              
1 44804U 19081A   26162.82239294  .00003196  00000+0  15465-3 0  9997
2 44804  97.4312 224.7754 0012707 165.8329 194.3264 15.19242938362655
GAOFEN-12 01            
1 44819U 19082A   26162.87544140  .00000344  00000+0  51646-4 0  9992
2 44819  97.8106 169.3951 0002406  76.5846 283.5635 14.80454214353300
CSG-1                   
1 44873U 19092A   26162.44795788  .00000333  00000+0  48405-4 0  9999
2 44873  97.8887 346.1336 0001445  90.9927 269.1452 14.82160067350621
NEMO-HD                 
1 46277U 20061F   26162.81726397  .00009880  00000+0  21506-3 0  9996
2 46277  97.1929 224.8243 0002462  87.0824 273.0707 15.44486499321155
SENTINEL-6A             
1 46984U 20086A   26162.30786473 -.00000031  00000+0  12839-3 0  9992
2 46984  66.0388 147.2637 0007940 270.2561  89.7545 12.80929900259573
CAS500-1                
1 47932U 21022A   26162.79709112  .00006208  00000+0  29007-3 0  9991
2 47932  97.3913  58.1596 0004199 327.5250  32.5726 15.20145581289949
GAOFEN-12 02            
1 48079U 21026A   26162.88593169  .00000311  00000+0  47705-4 0  9996
2 48079  97.9920 161.0882 0003406 245.0434 115.0424 14.80292072280975
PLEIADES NEO 3          
1 48268U 21034A   26162.85055147  .00001250  00000+0  16543-3 0  9999
2 48268  97.8930 237.6942 0001419  88.8149 271.3227 14.81677120276862
PLEIADES NEO 4          
1 49070U 21073E   26162.81679185  .00000588  00000+0  81283-4 0  9991
2 49070  97.8933 237.6563 0001363  84.6894 275.4474 14.81676746260578
LANDSAT 9               
1 49260U 21088A   26162.77157042  .00000254  00000+0  66368-4 0  9993
2 49260  98.2279 233.0143 0001444  87.7777 272.3587 14.57106894250211
CSG-2                   
1 51444U 22008A   26162.81926192  .00000860  00000+0  11454-3 0  9996
2 51444  97.8891 346.4954 0001479  86.6436 273.4946 14.82154926235794
GAOFEN-12 03            
1 52912U 22069A   26162.84728346  .00000920  00000+0  12829-3 0  9992
2 52912  97.8291  50.8519 0001851 108.8069 251.3344 14.80026186213826
SWOT                    
1 54754U 22173A   26162.77208987  .00000108  00000+0  75069-4 0  9994
2 54754  77.6110  42.6205 0000248  98.0545 262.0635 14.00168929178395
GAOFEN-12 04            
1 57654U 23123A   26162.86466624  .00000871  00000+0  12139-3 0  9991
2 57654  97.9125  80.9588 0001797  85.3308 274.8110 14.80218708151842
PARS 1                  
1 59065U 24039Q   26162.87645020  .00010426  00000+0  21798-3 0  9994
2 59065  97.4815 143.6290 0011156 127.4542 232.7723 15.45615265127821
RESURS-P 4              
1 59371U 24061A   26162.84230991  .00002827  00000+0  93683-4 0  9992
2 59371  97.2747 110.8342 0001751 130.8842 229.2552 15.32101069122945
LEGION 1                
1 59625U 24081A   26162.68496561  .00003510  00000+0  18276-3 0  9999
2 59625  97.5020 240.6006 0010041  35.9996 324.1911 15.16629330116709
LEGION 2                
1 59626U 24081B   26162.78084836  .00003179  00000+0  16593-3 0  9990
2 59626  97.5020 240.7930 0011285   3.0674 357.0626 15.16608275116722
ALOS-4 (DAICHI-4)       
1 60182U 24123A   26162.81551424  .00001285  00000+0  17891-3 0  9990
2 60182  97.9243 260.0646 0001634  96.7041 263.4356 14.79476806105083
LEGION 3                
1 60452U 24146A   26162.79356692  .00003626  00000+0  19902-3 0  9998
2 60452  45.0021  59.4805 0007113 137.2503 222.8929 15.15999557101209
LEGION 4                
1 60453U 24146B   26162.46714088  .00002807  00000+0  15705-3 0  9997
2 60453  45.0001 153.1422 0014103 278.5886  81.3395 15.15989990100007
SENTINEL-2C             
1 60989U 24157A   26162.78792786  .00000070  00000+0  43428-4 0  9993
2 60989  98.5691 237.6461 0001109  80.0974 280.0334 14.30816341 92215
IONOSFERA-M 1           
1 61735U 24199A   26162.70836755  .00000043  00000+0  38685-4 0  9995
2 61735  98.7181  35.9383 0001791 117.6173 242.5187 14.22753271126926
IONOSFERA-M 2           
1 61736U 24199B   26162.88332772  .00000043  00000+0  38716-4 0  9990
2 61736  98.7179  36.0220 0001266  42.9687 317.1590 14.22756493130070
PRSC-EO1                
1 62725U 25012A   26162.85118963  .00006080  00000+0  30483-3 0  9994
2 62725  97.4231 235.4151 0004187 275.9061  84.1696 15.17702043 77380
BIOMASS                 
1 63772U 25090A   26162.51073281  .00000930  00000+0  17243-3 0  9996
2 63772  98.0741 349.9101 0001372  91.0948 269.0414 14.67536716 59856
GOSAT-GW (IBUKI GW)     
1 64694U 25141A   26162.87199527  .00000325  00000+0  65723-4 0  9993
2 64694  98.0570 100.2755 0001422  83.9370 276.1996 14.67554538 51069
