OBJECT_NAME,OBJECT_ID,EPOCH,MEAN_MOTION,ECCENTRICITY,INCLINATION,RA_OF_ASC_NODE,ARG_OF_PERICENTER,MEAN_ANOMALY,EPHEMERIS_TYPE,CLASSIFICATION_TYPE,NORAD_CAT_ID,ELEMENT_SET_NO,REV_AT_EPOCH,BSTAR,MEAN_MOTION_DOT,MEAN_MOTION_DDOT
KAZSTSAT,2018-099AB,2026-06-11T15:02:42.996192,14.99850159,.0008155,97.4264,194.8082,84.2213,275.9941,0,U,43783,999,41047,.10421E-3,.1236E-4,0
SAUDISAT 5A,2018-102A,2026-06-11T20:39:01.024128,15.27992536,.0010653,97.3075,224.5439,145.5429,214.6504,0,U,43831,999,41486,.19358E-3,.5221E-4,0
SAUDISAT 5B,2018-102C,2026-06-11T21:07:26.877216,15.28252415,.0011309,97.3183,227.6233,147.9270,212.2660,0,U,43833,999,41498,.17891E-3,.4859E-4,0
GAOFEN-10R,2019-066A,2026-06-11T21:23:18.427200,14.83049165,.0006324,98.0496,116.4319,141.9623,218.2038,0,U,44622,999,36159,.12475E-3,.96E-5,0
CARTOSAT-3,2019-081A,2026-06-11T19:44:14.750016,15.19242938,.0012707,97.4312,224.7754,165.8329,194.3264,0,U,44804,999,36265,.15465E-3,.3196E-4,0
GAOFEN-12 01,2019-082A,2026-06-11T21:00:38.136960,14.80454214,.0002406,97.8106,169.3951,76.5846,283.5635,0,U,44819,999,35330,.51646E-4,.344E-5,0
CSG-1,2019-092A,2026-06-11T10:45:03.560832,14.82160067,.0001445,97.8887,346.1336,90.9927,269.1452,0,U,44873,999,35062,.48405E-4,.333E-5,0
NEMO-HD,2020-061F,2026-06-11T19:36:51.607008,15.44486499,.0002462,97.1929,224.8243,87.0824,273.0707,0,U,46277,999,32115,.21506E-3,.988E-4,0
SENTINEL-6A,2020-086A,2026-06-11T07:23:19.512672,12.80929900,.000794,66.0388,147.2637,270.2561,89.7545,0,U,46984,999,25957,.12839E-3,-.31E-6,0
CAS500-1,2021-022A,2026-06-11T19:07:48.672768,15.20145581,.0004199,97.3913,58.1596,327.5250,32.5726,0,U,47932,999,28994,.29007E-3,.6208E-4,0
GAOFEN-12 02,2021-026A,2026-06-11T21:15:44.498016,14.80292072,.0003406,97.9920,161.0882,245.0434,115.0424,0,U,48079,999,28097,.47705E-4,.311E-5,0
PLEIADES NEO 3,2021-034A,2026-06-11T20:24:47.647008,14.81677120,.0001419,97.8930,237.6942,88.8149,271.3227,0,U,48268,999,27686,.16543E-3,.125E-4,0
PLEIADES NEO 4,2021-073E,2026-06-11T19:36:10.815840,14.81676746,.0001363,97.8933,237.6563,84.6894,275.4474,0,U,49070,999,26057,.81283E-4,.588E-5,0
LANDSAT 9,2021-088A,2026-06-11T18:31:03.684288,14.57106894,.0001444,98.2279,233.0143,87.7777,272.3587,0,U,49260,999,25021,.66368E-4,.254E-5,0
CSG-2,2022-008A,2026-06-11T19:39:44.229888,14.82154926,.0001479,97.8891,346.4954,86.6436,273.4946,0,U,51444,999,23579,.11454E-3,.86E-5,0
GAOFEN-12 03,2022-069A,2026-06-11T20:20:05.290944,14.80026186,.0001851,97.8291,50.8519,108.8069,251.3344,0,U,52912,999,21382,.12829E-3,.92E-5,0
SWOT,2022-173A,2026-06-11T18:31:48.564768,14.00168929,.0000248,77.6110,42.6205,98.0545,262.0635,0,U,54754,999,17839,.75069E-4,.108E-5,0
GAOFEN-12 04,2023-123A,2026-06-11T20:45:07.163136,14.80218708,.0001797,97.9125,80.9588,85.3308,274.8110,0,U,57654,999,15184,.12139E-3,.871E-5,0
PARS 1,2024-039Q,2026-06-11T21:02:05.297280,15.45615265,.0011156,97.4815,143.6290,127.4542,232.7723,0,U,59065,999,12782,.21798E-3,.10426E-3,0
RESURS-P 4,2024-061A,2026-06-11T20:12:55.576224,15.32101069,.0001751,97.2747,110.8342,130.8842,229.2552,0,U,59371,999,12294,.93683E-4,.2827E-4,0
LEGION 1,2024-081A,2026-06-11T16:26:21.028704,15.16629330,.0010041,97.5020,240.6006,35.9996,324.1911,0,U,59625,999,11670,.18276E-3,.351E-4,0
LEGION 2,2024-081B,2026-06-11T18:44:25.298304,15.16608275,.0011285,97.5020,240.7930,3.0674,357.0626,0,U,59626,999,11672,.16593E-3,.3179E-4,0
ALOS-4 (DAICHI-4),2024-123A,2026-06-11T19:34:20.430336,14.79476806,.0001634,97.9243,260.0646,96.7041,263.4356,0,U,60182,999,10508,.17891E-3,.1285E-4,0
LEGION 3,2024-146A,2026-06-11T19:02:44.181888,15.15999557,.0007113,45.0021,59.4805,137.2503,222.8929,0,U,60452,999,10120,.19902E-3,.3626E-4,0
LEGION 4,2024-146B,2026-06-11T11:12:40.972032,15.15989990,.0014103,45.0001,153.1422,278.5886,81.3395,0,U,60453,999,10000,.15705E-3,.2807E-4,0
SENTINEL-2C,2024-157A,2026-06-11T18:54:36.967104,14.30816341,.0001109,98.5691,237.6461,80.0974,280.0334,0,U,60989,999,9221,.43428E-4,.7E-6,0
IONOSFERA-M 1,2024-199A,2026-06-11T17:00:02.956320,14.22753271,.0001791,98.7181,35.9383,117.6173,242.5187,0,U,61735,999,12692,.38685E-4,.43E-6,0
IONOSFERA-M 2,2024-199B,2026-06-11T21:11:59.515008,14.22756493,.0001266,98.7179,36.0220,42.9687,317.1590,0,U,61736,999,13007,.38716E-4,.43E-6,0
PRSC-EO1,2025-012A,2026-06-11T20:25:42.784032,15.17702043,.0004187,97.4231,235.4151,275.9061,84.1696,0,U,62725,999,7738,.30483E-3,.608E-4,0
BIOMASS,2025-090A,2026-06-11T12:15:27.314784,14.67536716,.0001372,98.0741,349.9101,91.0948,269.0414,0,U,63772,999,5985,.17243E-3,.93E-5,0
GOSAT-GW (IBUKI GW),2025-141A,2026-06-11T20:55:40.391328,14.67554538,.0001422,98.0570,100.2755,83.9370,276.1996,0,U,64694,999,5106,.65723E-4,.325E-5,0
